[{"OBJECT_NAME":"STARLINK-5533","OBJECT_ID":"2023-058AQ","EPOCH":"2026-03-09T22:52:13.220256","MEAN_MOTION":15.01262784,"ECCENTRICITY":0.00019384,"INCLINATION":97.6048,"RA_OF_ASC_NODE":70.5271,"ARG_OF_PERICENTER":89.8933,"MEAN_ANOMALY":270.2514,"EPHEMERIS_TYPE":0,"CLASSIFICATION_TYPE":"U","NORAD_CAT_ID":56355,"ELEMENT_SET_NO":999,"REV_AT_EPOCH":15817,"BSTAR":5.7430795e-5,"MEAN_MOTION_DOT":6.79e-6,"MEAN_MOTION_DDOT":0},{"OBJECT_NAME":"FENGYUN 1C DEB","OBJECT_ID":"1999-025BUD","EPOCH":"2026-03-07T11:11:12.390432","MEAN_MOTION":14.83443137,"ECCENTRICITY":0.00894999,"INCLINATION":99.307,"RA_OF_ASC_NODE":307.5923,"ARG_OF_PERICENTER":70.0629,"MEAN_ANOMALY":291.0194,"EPHEMERIS_TYPE":0,"CLASSIFICATION_TYPE":"U","NORAD_CAT_ID":31441,"ELEMENT_SET_NO":999,"REV_AT_EPOCH":65343,"BSTAR":0.0080119516,"MEAN_MOTION_DOT":0.00071223,"MEAN_MOTION_DDOT":0}]
